start=new Date('2022-03-01T00:00:00.000Z').valueOf();
sats=[{"TLE_LINE1":"1 48565U 21041N   22059.84036413  .00003467  00000-0  25151-3 0  9990","BSTAR":"0.00025151000000","MEAN_ELEMENT_THEORY":"SGP4","EPHEMERIS_TYPE":"0","OBJECT_NAME":"STARLINK-2191","MEAN_MOTION_DDOT":"0.0000000000000","MEAN_MOTION_DOT":"0.00003467","PERIOD":"95.592","SEMIMAJOR_AXIS":"6925.345","CENTER_NAME":"EARTH","GP_ID":"197412923","PERIAPSIS":"546.136","MEAN_MOTION":"15.06401306","ARG_OF_PERICENTER":"75.2257","TIME_SYSTEM":"UTC","REF_FRAME":"TEME","OBJECT_TYPE":"PAYLOAD","REV_AT_EPOCH":"4366","APOAPSIS":"548.283","NORAD_CAT_ID":"48565","COUNTRY_CODE":"US","FILE":"3334872","TLE_LINE2":"2 48565  53.0521 250.0399 0001550  75.2257 284.8904 15.06401306 43663","RCS_SIZE":"LARGE","OBJECT_ID":"2021-041N","SITE":"AFETR","MEAN_ANOMALY":"284.8904","ECCENTRICITY":"0.00015500","DECAY_DATE":null,"CLASSIFICATION_TYPE":"U","ELEMENT_SET_NO":"999","RA_OF_ASC_NODE":"250.0399","LAUNCH_DATE":"2021-05-15","INCLINATION":"53.0521","EPOCH":"2022-02-28T20:10:07.460832"},{"SITE":"AFETR","ECCENTRICITY":"0.00014490","MEAN_ANOMALY":"288.7086","ELEMENT_SET_NO":"999","CLASSIFICATION_TYPE":"U","DECAY_DATE":null,"LAUNCH_DATE":"2021-05-15","RA_OF_ASC_NODE":"259.6304","INCLINATION":"53.0534","EPOCH":"2022-02-28T22:20:07.499040","BSTAR":"0.00016806000000","TLE_LINE1":"1 48566U 21041P   22059.93064235  .00002223  00000-0  16806-3 0  9990","MEAN_ELEMENT_THEORY":"SGP4","EPHEMERIS_TYPE":"0","SEMIMAJOR_AXIS":"6925.353","PERIOD":"95.592","MEAN_MOTION_DOT":"0.00002223","MEAN_MOTION_DDOT":"0.0000000000000","OBJECT_NAME":"STARLINK-2214","REF_FRAME":"TEME","ARG_OF_PERICENTER":"71.4060","TIME_SYSTEM":"UTC","GP_ID":"197413175","CENTER_NAME":"EARTH","PERIAPSIS":"546.215","MEAN_MOTION":"15.06398390","REV_AT_EPOCH":"4353","OBJECT_TYPE":"PAYLOAD","TLE_LINE2":"2 48566  53.0534 259.6304 0001449  71.4060 288.7086 15.06398390 43534","FILE":"3334872","COUNTRY_CODE":"US","NORAD_CAT_ID":"48566","APOAPSIS":"548.222","OBJECT_ID":"2021-041P","RCS_SIZE":"LARGE"},{"EPOCH":"2022-02-28T21:01:51.852576","LAUNCH_DATE":"2021-05-15","RA_OF_ASC_NODE":"259.8625","INCLINATION":"53.0544","ELEMENT_SET_NO":"999","CLASSIFICATION_TYPE":"U","DECAY_DATE":null,"SITE":"AFETR","ECCENTRICITY":"0.00015120","MEAN_ANOMALY":"282.8405","OBJECT_ID":"2021-041Q","RCS_SIZE":"LARGE","REV_AT_EPOCH":"4352","OBJECT_TYPE":"PAYLOAD","FILE":"3334872","TLE_LINE2":"2 48567  53.0544 259.8625 0001512  77.2753 282.8405 15.06403094 43525","COUNTRY_CODE":"US","NORAD_CAT_ID":"48567","APOAPSIS":"548.251","SEMIMAJOR_AXIS":"6925.339","PERIOD":"95.592","MEAN_MOTION_DOT":"0.00002074","MEAN_MOTION_DDOT":"0.0000000000000","OBJECT_NAME":"STARLINK-2215","REF_FRAME":"TEME","TIME_SYSTEM":"UTC","ARG_OF_PERICENTER":"77.2753","GP_ID":"197411923","CENTER_NAME":"EARTH","PERIAPSIS":"546.157","MEAN_MOTION":"15.06403094","BSTAR":"0.00015808000000","TLE_LINE1":"1 48567U 21041Q   22059.87629459  .00002074  00000-0  15808-3 0  9994","EPHEMERIS_TYPE":"0","MEAN_ELEMENT_THEORY":"SGP4"},{"PERIAPSIS":"546.176","GP_ID":"197412173","CENTER_NAME":"EARTH","MEAN_MOTION":"15.06395966","TIME_SYSTEM":"UTC","ARG_OF_PERICENTER":"84.3035","REF_FRAME":"TEME","MEAN_MOTION_DDOT":"0.0000000000000","OBJECT_NAME":"STARLINK-2217","MEAN_MOTION_DOT":"0.00000655","PERIOD":"95.592","SEMIMAJOR_AXIS":"6925.361","EPHEMERIS_TYPE":"0","MEAN_ELEMENT_THEORY":"SGP4","TLE_LINE1":"1 48568U 21041R   22059.82193342  .00000655  00000-0  62875-4 0  9997","BSTAR":"0.00006287500000","RCS_SIZE":"MEDIUM","OBJECT_ID":"2021-041R","NORAD_CAT_ID":"48568","APOAPSIS":"548.276","COUNTRY_CODE":"US","TLE_LINE2":"2 48568  53.0550 250.1088 0001516  84.3035 275.8126 15.06395966 43650","FILE":"3334872","OBJECT_TYPE":"PAYLOAD","REV_AT_EPOCH":"4365","DECAY_DATE":null,"CLASSIFICATION_TYPE":"U","ELEMENT_SET_NO":"999","MEAN_ANOMALY":"275.8126","ECCENTRICITY":"0.00015160","SITE":"AFETR","EPOCH":"2022-02-28T19:43:35.047488","INCLINATION":"53.0550","RA_OF_ASC_NODE":"250.1088","LAUNCH_DATE":"2021-05-15"},{"REV_AT_EPOCH":"4366","OBJECT_TYPE":"PAYLOAD","TLE_LINE2":"2 48569  53.0541 250.0085 0001490  70.5253 289.5896 15.06398316 43666","FILE":"3334872","COUNTRY_CODE":"US","NORAD_CAT_ID":"48569","APOAPSIS":"548.251","OBJECT_ID":"2021-041S","RCS_SIZE":"LARGE","BSTAR":"0.00017208000000","TLE_LINE1":"1 48569U 21041S   22059.84773456  .00002282  00000-0  17208-3 0  9997","EPHEMERIS_TYPE":"0","MEAN_ELEMENT_THEORY":"SGP4","SEMIMAJOR_AXIS":"6925.354","PERIOD":"95.592","MEAN_MOTION_DOT":"0.00002282","MEAN_MOTION_DDOT":"0.0000000000000","OBJECT_NAME":"STARLINK-2219","REF_FRAME":"TEME","ARG_OF_PERICENTER":"70.5253","TIME_SYSTEM":"UTC","GP_ID":"197412925","MEAN_MOTION":"15.06398316","PERIAPSIS":"546.187","CENTER_NAME":"EARTH","LAUNCH_DATE":"2021-05-15","RA_OF_ASC_NODE":"250.0085","INCLINATION":"53.0541","EPOCH":"2022-02-28T20:20:44.265984","SITE":"AFETR","ECCENTRICITY":"0.00014900","MEAN_ANOMALY":"289.5896","ELEMENT_SET_NO":"999","CLASSIFICATION_TYPE":"U","DECAY_DATE":null},{"OBJECT_ID":"2021-041T","RCS_SIZE":"LARGE","TLE_LINE2":"2 48570  53.0542 260.3416 0001587  73.4610 286.6553 15.06403777 43506","FILE":"3334872","NORAD_CAT_ID":"48570","APOAPSIS":"548.301","COUNTRY_CODE":"US","REV_AT_EPOCH":"4350","OBJECT_TYPE":"PAYLOAD","ARG_OF_PERICENTER":"73.4610","TIME_SYSTEM":"UTC","REF_FRAME":"TEME","GP_ID":"197413675","PERIAPSIS":"546.103","MEAN_MOTION":"15.06403777","CENTER_NAME":"EARTH","PERIOD":"95.592","SEMIMAJOR_AXIS":"6925.337","MEAN_MOTION_DDOT":"0.0000000000000","OBJECT_NAME":"STARLINK-2220","MEAN_MOTION_DOT":"0.00002042","EPHEMERIS_TYPE":"0","MEAN_ELEMENT_THEORY":"SGP4","TLE_LINE1":"1 48570U 21041T   22059.76940023  .00002042  00000-0  15595-3 0  9997","BSTAR":"0.00015595000000","EPOCH":"2022-02-28T18:27:56.179872","INCLINATION":"53.0542","LAUNCH_DATE":"2021-05-15","RA_OF_ASC_NODE":"260.3416","ELEMENT_SET_NO":"999","CLASSIFICATION_TYPE":"U","DECAY_DATE":null,"ECCENTRICITY":"0.00015870","MEAN_ANOMALY":"286.6553","SITE":"AFETR"},{"BSTAR":"0.00015799000000","TLE_LINE1":"1 48571U 21041U   22059.84312065  .00002073  00000-0  15799-3 0  9996","EPHEMERIS_TYPE":"0","MEAN_ELEMENT_THEORY":"SGP4","MEAN_MOTION_DOT":"0.00002073","OBJECT_NAME":"STARLINK-2221","MEAN_MOTION_DDOT":"0.0000000000000","SEMIMAJOR_AXIS":"6925.348","PERIOD":"95.592","MEAN_MOTION":"15.06400200","GP_ID":"197412423","PERIAPSIS":"546.223","CENTER_NAME":"EARTH","REF_FRAME":"TEME","TIME_SYSTEM":"UTC","ARG_OF_PERICENTER":"72.4651","OBJECT_TYPE":"PAYLOAD","REV_AT_EPOCH":"4352","COUNTRY_CODE":"US","APOAPSIS":"548.203","NORAD_CAT_ID":"48571","FILE":"3334872","TLE_LINE2":"2 48571  53.0537 260.0281 0001430  72.4651 287.6494 15.06400200 43524","RCS_SIZE":"LARGE","OBJECT_ID":"2021-041U","SITE":"AFETR","MEAN_ANOMALY":"287.6494","ECCENTRICITY":"0.00014300","DECAY_DATE":null,"ELEMENT_SET_NO":"999","CLASSIFICATION_TYPE":"U","RA_OF_ASC_NODE":"260.0281","LAUNCH_DATE":"2021-05-15","INCLINATION":"53.0537","EPOCH":"2022-02-28T20:14:05.624160"},{"EPOCH":"2022-02-28T18:33:14.910336","RA_OF_ASC_NODE":"260.3307","LAUNCH_DATE":"2021-05-15","INCLINATION":"53.0551","DECAY_DATE":null,"CLASSIFICATION_TYPE":"U","ELEMENT_SET_NO":"999","SITE":"AFETR","MEAN_ANOMALY":"273.3928","ECCENTRICITY":"0.00015700","RCS_SIZE":"LARGE","OBJECT_ID":"2021-041V","OBJECT_TYPE":"PAYLOAD","REV_AT_EPOCH":"4351","COUNTRY_CODE":"US","NORAD_CAT_ID":"48572","APOAPSIS":"548.292","FILE":"3334872","TLE_LINE2":"2 48572  53.0551 260.3307 0001570  86.7240 273.3928 15.06402734 43517","MEAN_MOTION_DOT":"0.00000281","MEAN_MOTION_DDOT":"0.0000000000000","OBJECT_NAME":"STARLINK-2222","SEMIMAJOR_AXIS":"6925.340","PERIOD":"95.592","PERIAPSIS":"546.118","GP_ID":"197412673","MEAN_MOTION":"15.06402734","CENTER_NAME":"EARTH","REF_FRAME":"TEME","TIME_SYSTEM":"UTC","ARG_OF_PERICENTER":"86.7240","BSTAR":"0.00003774700000","TLE_LINE1":"1 48572U 21041V   22059.77308924  .00000281  00000-0  37747-4 0  9995","EPHEMERIS_TYPE":"0","MEAN_ELEMENT_THEORY":"SGP4"},{"LAUNCH_DATE":"2021-05-15","RA_OF_ASC_NODE":"249.8208","INCLINATION":"53.0537","EPOCH":"2022-02-28T21:13:48.347040","SITE":"AFETR","ECCENTRICITY":"0.00018400","MEAN_ANOMALY":"289.0185","ELEMENT_SET_NO":"999","CLASSIFICATION_TYPE":"U","DECAY_DATE":null,"REV_AT_EPOCH":"4366","OBJECT_TYPE":"PAYLOAD","TLE_LINE2":"2 48573  53.0537 249.8208 0001840  71.1004 289.0185 15.06398657 43663","FILE":"3334872","NORAD_CAT_ID":"48573","APOAPSIS":"548.492","COUNTRY_CODE":"US","OBJECT_ID":"2021-041W","RCS_SIZE":"LARGE","TLE_LINE1":"1 48573U 21041W   22059.88458735  .00002186  00000-0  16564-3 0  9993","BSTAR":"0.00016564000000","EPHEMERIS_TYPE":"0","MEAN_ELEMENT_THEORY":"SGP4","PERIOD":"95.592","SEMIMAJOR_AXIS":"6925.353","OBJECT_NAME":"STARLINK-2224","MEAN_MOTION_DDOT":"0.0000000000000","MEAN_MOTION_DOT":"0.00002186","TIME_SYSTEM":"UTC","ARG_OF_PERICENTER":"71.1004","REF_FRAME":"TEME","MEAN_MOTION":"15.06398657","GP_ID":"197413425","PERIAPSIS":"545.943","CENTER_NAME":"EARTH"},{"ELEMENT_SET_NO":"999","CLASSIFICATION_TYPE":"U","DECAY_DATE":null,"SITE":"AFETR","ECCENTRICITY":"0.00016540","MEAN_ANOMALY":"323.8135","EPOCH":"2022-02-28T22:00:00.999936","LAUNCH_DATE":"2021-05-15","RA_OF_ASC_NODE":"219.6826","INCLINATION":"53.0519","SEMIMAJOR_AXIS":"6925.421","PERIOD":"95.594","MEAN_MOTION_DOT":"0.00042328","OBJECT_NAME":"STARLINK-2225","MEAN_MOTION_DDOT":"0.0000000000000","REF_FRAME":"TEME","ARG_OF_PERICENTER":"60.5700","TIME_SYSTEM":"UTC","GP_ID":"197413176","CENTER_NAME":"EARTH","PERIAPSIS":"546.140","MEAN_MOTION":"15.06376502","BSTAR":"0.00284530000000","TLE_LINE1":"1 48574U 21041X   22059.91667824  .00042328  00000-0  28453-2 0  9990","MEAN_ELEMENT_THEORY":"SGP4","EPHEMERIS_TYPE":"0","OBJECT_ID":"2021-041X","RCS_SIZE":"LARGE","REV_AT_EPOCH":"360","OBJECT_TYPE":"PAYLOAD","TLE_LINE2":"2 48574  53.0519 219.6826 0001654  60.5700 323.8135 15.06376502  3600","FILE":"3334872","COUNTRY_CODE":"US","NORAD_CAT_ID":"48574","APOAPSIS":"548.431"}];
